223P/Skiff,e,27.0058,346.6993,37.9892,4.158189,0.1162379,0.41620211,279.9336,09/04.0/2025,2000,g 12.0,4.0
# From MPEC 2024-L77
224P/LINEAR-NEAT,e,13.3004,40.0407,16.8225,3.447381,0.1539821,0.40549922,164.7382,09/04.0/2025,2000,g 15.5,4.0
# From MPEC 2024-F91
225P/LINEAR,e,21.3598,14.2123,3.9067,3.647526,0.1414838,0.63809490,107.2730,09/04.0/2025,2000,g 18.0,4.0
# From MPEC 2024-MB8
226P/Pigott-LINEAR-Kowalski,e,44.0445,54.0143,341.0364,3.765431,0.1348907,0.52880227,83.2233,09/04.0/2025,2000,g 12.5,4.0
# From MPEC 2024-R10
227P/Catalina-LINEAR,e,7.5070,36.7981,105.5985,3.437732,0.1546308,0.52774566,84.2186,09/04.0/2025,2000,g 16.5,2.0
# From MPEC 2022-HC2
228P/LINEAR,e,7.9162,30.9525,114.8241,4.161722,0.1160899,0.17751753,232.6380,09/04.0/2025,2000,g 14.5,2.0
# From MPC186636
229P/Gibbs,e,26.0962,157.8733,224.2504,3.924792,0.1267591,0.37818295,23.0860,09/04.0/2025,2000,g 13.0,4.0
# From MPC185664
230P/LINEAR,e,15.4727,106.9246,313.5874,3.455171,0.1534616,0.54540362,194.0150,09/04.0/2025,2000,g 13.0,4.0
# From MPEC 2023-SQ0
231P/LINEAR-NEAT,e,12.2733,132.7676,43.6166,4.063548,0.1203223,0.23995480,275.8741,09/04.0/2025,2000,g 14.5,2.0
# From MPC112394
232P/Hill,e,14.6428,56.0054,53.3211,4.469592,0.1043043,0.33618021,243.9513,09/04.0/2025,2000,g 11.5,4.0
# From MPEC 2021-N06
233P/La Sagra,e,11.2888,74.8979,27.0192,3.027010,0.1871472,0.41304813,336.3966,09/04.0/2025,2000,g 15.0,4.0
# From MPC185664
234P/LINEAR,e,11.5334,179.5620,357.4511,3.798415,0.1331375,0.25735546,41.9782,09/04.0/2025,2000,g 12.0,4.0
# From MPC186636
235P/LINEAR,e,9.8130,200.1710,352.1861,3.445882,0.1540825,0.42599316,343.1047,09/04.0/2025,2000,g 12.0,4.0
# From MPEC 2024-P23
236P/LINEAR,e,16.3530,245.5675,119.4473,3.727300,0.1369659,0.50950879,29.0522,09/04.0/2025,2000,g 14.0,4.0
# From MPC182890
237P/LINEAR,e,14.0058,245.3589,25.5619,3.518230,0.1493543,0.43219330,126.0466,09/04.0/2025,2000,g 14.5,2.0
# From MPEC 2024-L77
238P/Read,e,1.2636,51.6505,324.2612,3.167758,0.1748139,0.25051845,207.5388,09/04.0/2025,2000,g 14.5,4.0
# From MPEC 2021-F20
239P/LINEAR,e,11.3062,255.9329,220.3947,4.463436,0.1045202,0.63156144,253.6355,09/04.0/2025,2000,g 17.5,2.0
# From MPC186636
240P/NEAT,e,23.5371,74.9113,352.0691,3.860832,0.1299220,0.45043392,346.1069,09/04.0/2025,2000,g 11.0,4.0
# From MPEC 2022-J42
241P/LINEAR,e,21.0951,305.4104,111.6290,4.928157,0.0900901,0.61005462,135.2096,09/04.0/2025,2000,g 13.5,4.0
# From MPC185665
242P/Spahr,e,32.4243,180.2157,245.0205,5.538510,0.0756162,0.28287597,19.2453,09/04.0/2025,2000,g  8.0,4.0
# From MPC186637
243P/NEAT,e,7.6445,87.5768,283.7813,3.826416,0.1316788,0.36023612,337.0128,09/04.0/2025,2000,g 12.5,4.0
# From MPEC 2024-L77
244P/Scotti,e,2.2574,354.0047,93.5486,4.905180,0.0907239,0.19980214,92.4173,09/04.0/2025,2000,g  9.0,4.0
# From MPEC 2022-CN4
245P/WISE,e,21.1711,316.8835,316.4957,4.053141,0.1207860,0.45584387,334.8556,09/04.0/2025,2000,g 14.0,4.0
# From MPEC 2024-YC7
246P/NEAT,e,17.3744,74.1451,185.2707,4.313038,0.1100346,0.21584923,193.4683,09/04.0/2025,2000,g 10.5,4.0
# From MPEC 2021-F20
247P/LINEAR,e,13.6582,53.9826,47.5174,3.963471,0.1249081,0.62560653,307.9190,09/04.0/2025,2000,g 16.5,2.0
# From MPC185665
248P/Gibbs,e,6.3517,207.7956,209.9925,5.984000,0.0673313,0.63941389,359.2642,09/04.0/2025,2000,g 14.0,4.0
# From MPEC 2022-YN2
249P/LINEAR,e,8.3809,239.0275,65.7802,2.767078,0.2141273,0.81941711,45.8846,09/04.0/2025,2000,g 15.5,4.0
# From MPC182890
250P/Larson,e,13.1518,73.3008,45.7015,3.775977,0.1343260,0.39821818,14.8150,09/04.0/2025,2000,g 14.5,4.0
# From MPEC 2024-TD8
251P/LINEAR,e,23.3888,219.3370,31.1859,3.511605,0.1497771,0.50417226,85.2077,09/04.0/2025,2000,g 16.5,2.0
# From MPEC 2021-S45
252P/LINEAR,e,10.4203,190.9066,343.3726,3.051350,0.1849124,0.67109208,280.5426,09/04.0/2025,2000,g 17.5,4.0
# From MPC182890
253P/PANSTARRS,e,4.9470,146.8122,230.8384,3.465221,0.1527945,0.41542212,48.5846,09/04.0/2025,2000,g 14.5,4.0
# From MPC184419
254P/McNaught,e,32.5372,129.1773,219.7159,4.620341,0.0992414,0.31838386,178.8280,09/04.0/2025,2000,g 11.0,4.0
# From NK 2214
255P/Levy,e,13.4057,275.6370,186.0483,2.942185,0.1952986,0.71208605,213.2280,09/04.0/2025,2000,g 20.0,4.0
# From MPEC 2024-L77
256P/LINEAR,e,27.6231,81.3220,124.0529,4.634555,0.0987852,0.41808197,89.6029,09/04.0/2025,2000,g 14.0,2.0
# From MPEC 2023-A50
257P/Catalina,e,20.2148,207.7302,117.7136,3.768275,0.1347380,0.42872085,245.5153,09/04.0/2025,2000,g 11.5,4.0
# From MPEC 2021-U31
258P/PANSTARRS,e,6.7512,126.2366,25.6221,4.388367,0.1072135,0.20966802,204.0332,09/04.0/2025,2000,g 13.0,4.0
# From MPC106349
259P/Garradd,e,15.8980,51.3737,257.4777,2.729570,0.2185560,0.33872732,285.2227,09/04.0/2025,2000,g 15.5,4.0
# From MPEC 2022-O01
260P/McNaught,e,15.0426,349.2997,18.4954,3.623585,0.1428882,0.60874815,312.1314,09/04.0/2025,2000,g 13.5,4.0
# From MPC186637
261P/Larson,e,6.0734,291.0507,67.3666,3.489296,0.1512158,0.42274780,342.6987,09/04.0/2025,2000,g 14.0,4.0
# From MPC 82322
262P/McNaught-Russell,e,29.2425,217.8853,171.0698,6.869322,0.0547436,0.81589428,254.4373,09/04.0/2025,2000,g 13.5,4.0
# From MPEC 2024-L77
263P/Gibbs,e,11.5269,105.5044,35.0229,3.040727,0.1858822,0.59412916,176.0294,09/04.0/2025,2000,g 18.0,4.0
# From MPC114608
264P/Larsen,e,25.1191,219.0787,341.1557,4.030098,0.1218234,0.34018360,292.0664,09/04.0/2025,2000,g 13.0,4.0
# From MPC 79870
265P/LINEAR,e,14.3384,342.9154,33.5704,4.261126,0.1120515,0.64660574,186.9531,09/04.0/2025,2000,g 14.5,4.0
# From MPEC 2021-F20
266P/Christensen,e,3.4285,4.9458,97.8077,3.527590,0.1487603,0.34096689,291.6688,09/04.0/2025,2000,g 12.5,4.0
# From MPC114608
267P/LONEOS,e,6.1390,228.5152,114.1985,3.207109,0.1716064,0.61513162,85.2877,09/04.0/2025,2000,g 19.5,4.0
# From MPC185665
268P/Bernardi,e,15.6614,125.6314,0.0250,4.591451,0.1001796,0.47450458,25.9965,09/04.0/2025,2000,g 14.0,4.0
# From MPEC 2023-J29
269P/Jedicke,e,7.0836,241.7607,225.7495,7.057712,0.0525664,0.43361746,209.2708,09/04.0/2025,2000,g 10.0,4.0
# From MPC 88332
270P/Gehrels,e,2.9247,223.0203,209.9490,6.648405,0.0574947,0.47019444,256.0594,09/04.0/2025,2000,g  8.0,4.0
# From MPC 92277
271P/van Houten-Lemmon,e,6.8660,9.2695,36.6368,7.032471,0.0528497,0.39579212,233.6257,09/04.0/2025,2000,g 11.0,4.0
# From MPEC 2023-D41
272P/NEAT,e,18.0831,109.4391,27.8920,4.461969,0.1045717,0.45557852,119.6685,09/04.0/2025,2000,g 16.0,2.0
# From MPC 82723
273P/Pons-Gambart,e,136.3335,320.3800,20.1105,31.90982,0.0054679,0.97453904,0.0000,12/21.7560/2012,2000,g 11.5,4.0
# From MPEC 2024-GJ3
274P/Tombaugh-Tenagra,e,15.8203,81.3173,38.5007,4.378508,0.1075759,0.44029747,133.7904,09/04.0/2025,2000,g 13.0,4.0
# From MPC 81862
275P/Hermann,e,21.2536,348.6825,173.8885,5.797700,0.0706026,0.71382980,330.4212,09/04.0/2025,2000,g 15.0,4.0
# From MPC184419
276P/Vorobjov,e,14.7575,211.1831,199.4887,5.375419,0.0790834,0.27473683,21.0775,09/04.0/2025,2000,g 11.5,4.0
# From MPEC 2021-F20
277P/LINEAR,e,16.7935,276.2596,152.4438,3.853540,0.1302910,0.50637964,222.4199,09/04.0/2025,2000,g 14.0,4.0
# From MPEC 2021-S45
278P/McNaught,e,6.6167,11.7953,241.6405,3.630864,0.1424588,0.45338258,254.4956,09/04.0/2025,2000,g 14.0,4.0
# From MPEC 2024-A43
279P/LaSagra,e,5.0536,346.0961,5.6096,3.567490,0.1462716,0.39952699,127.1552,09/04.0/2025,2000,g 14.0,4.0
# From MPEC 2024-RQ6
280P/Larsen,e,11.7755,131.3786,104.6193,4.523913,0.1024313,0.41685912,78.0154,09/04.0/2025,2000,g 12.5,4.0
# From MPEC 2023-D41
281P/MOSS,e,4.7176,87.1664,27.0533,4.887415,0.0912190,0.17394341,85.9696,09/04.0/2025,2000,g 11.0,4.0
# From MPEC 2022-K19
283P/Spacewatch,e,14.4696,161.1250,22.1437,4.131330,0.1173733,0.48512432,170.9468,09/04.0/2025,2000,g 16.0,2.0
# From MPEC 2024-D33
284P/McNaught,e,11.8524,144.2624,202.4570,3.679176,0.1396620,0.37423380,203.0675,09/04.0/2025,2000,g 13.0,4.0
# From MPEC 2024-L77
285P/LINEAR,e,25.0316,185.5154,178.3821,4.505227,0.1030692,0.61799945,99.5949,09/04.0/2025,2000,g 15.0,4.0
# From MPEC 2024-LE0
286P/Christensen,e,17.2455,283.5817,23.8160,4.070843,0.1199990,0.43285469,145.1728,09/04.0/2025,2000,g 14.0,4.0
# From MPEC 2025-A40
287P/Christensen,e,16.3706,138.5454,190.9137,4.194296,0.1147402,0.27268617,90.0662,09/04.0/2025,2000,g 13.5,4.0
# From MPC133426
288P/,e,3.2382,83.1066,280.2771,3.050733,0.1849685,0.19953841,237.3601,09/04.0/2025,2000,g 16.0,2.0
# From MPEC 2024-O39
289P/Blanpain,e,5.9002,68.8903,9.8753,3.043535,0.1856251,0.68643996,26.4858,09/04.0/2025,2000,g 19.0,4.0
# From MPC 95214
290P/Jager,e,20.0442,302.6706,181.8693,6.213097,0.0636417,0.62830526,269.8088,09/04.0/2025,2000,g 10.5,4.0
# From MPEC 2024-YC7
291P/NEAT,e,6.3096,237.6625,173.5746,4.535300,0.1020458,0.43379535,87.1509,09/04.0/2025,2000,g 13.0,4.0
# From MPEC 2022-K19
292P/Li,e,24.3229,90.8952,319.6676,6.095412,0.0654937,0.58984017,276.3761,09/04.0/2025,2000,g 12.5,4.0
# From MPEC 2022-L66
293P/Spacewatch,e,9.0608,78.3583,40.9995,3.637336,0.1420787,0.41960352,244.0605,09/04.0/2025,2000,g 14.5,4.0
# From MPC184419
294P/LINEAR,e,17.7429,309.6002,237.5863,3.190113,0.1729797,0.60094019,4.1181,09/04.0/2025,2000,g 15.5,4.0
# From MPEC 2022-K19
295P/LINEAR,e,21.0862,7.3787,73.0527,5.298070,0.0808216,0.61762013,333.9962,09/04.0/2025,2000,g 12.0,4.0
# From MPEC 2021-N06
296P/Garradd,e,25.3618,263.5094,350.3864,3.467827,0.1526223,0.48664403,274.1741,09/04.0/2025,2000,g 14.0,4.0
# From MPC102956
297P/Beshore,e,11.2344,92.1750,142.4979,3.572508,0.1459635,0.28197518,246.3263,09/04.0/2025,2000,g 15.0,4.0
# From MPC114609
298P/Christensen,e,7.8727,52.7840,100.6258,3.587997,0.1450194,0.38700648,264.4750,09/04.0/2025,2000,g 15.0,4.0
# From MPC186637
299P/Catalina-PANSTARRS,e,10.4689,271.5803,323.5963,4.388320,0.1072153,0.28093349,52.7585,09/04.0/2025,2000,g 11.5,4.0
# From MPEC 2023-VM5
300P/Catalina,e,5.6765,95.6214,222.8745,2.696117,0.2226363,0.69223677,195.2493,09/04.0/2025,2000,g 16.0,4.0
# From MPC 89014
301P/LINEAR-NEAT,e,10.3287,351.0623,193.4212,5.752914,0.0714286,0.58632302,289.5763,09/04.0/2025,2000,g 13.0,4.0
# From MPC186637
